QZS-2 (MICHIBIKI-2)     
1 42738U 17028A   26190.46017160 -.00000092  00000+0  00000+0 0  9995
2 42738  39.3944 242.8253 0758066 269.5337  83.0316  1.00278207  7859
QZS-3 (MICHIBIKI-3)     
1 42917U 17048A   26191.30692499 -.00000337  00000+0  00000+0 0  9996
2 42917   0.0737 218.9036 0002526 264.9421  41.8841  1.00274625 32495
QZS-4 (MICHIBIKI-4)     
1 42965U 17062A   26190.74072012 -.00000315  00000+0  00000+0 0  9991
2 42965  40.0954 343.1995 0747415 268.4439  81.4735  1.00291716 32020
QZS-1R (MICHIBIKI-1R)   
1 49336U 21096A   26190.59313258 -.00000279  00000+0  00000+0 0  9994
2 49336  37.5047  79.2525 0754958 272.1428 281.8869  1.00247254 17237
QZS-6 (MICHIBIKI-6)     
1 62876U 25023A   26191.29955829 -.00000222  00000+0  00000+0 0  9994
2 62876   0.0230 313.9351 0001819 176.0231 356.5979  1.00268414  5184
